ONEWEB-0501             
1 54119U 22138G   23264.90085125  .00000040  00000+0  67610-4 0  9990
2 54119  87.9250 143.8519 0002389  84.8747 275.2658 13.19727338 45002
ONEWEB-0502             
1 54120U 22138H   23265.18987896  .00000013  00000+0 -17825-6 0  9995
2 54120  87.9249 143.7874 0002097  84.0210 276.1162 13.19728710 45935
ONEWEB-0503             
1 54121U 22138J   23264.72394193 -.00000408  00000+0 -10515-2 0  9991
2 54121  87.9248 143.8880 0001556  81.2911 278.8398 13.19730017 44997
ONEWEB-0504             
1 54122U 22138K   23264.93874342  .00000030  00000+0  41897-4 0  9992
2 54122  87.9201 143.8465 0001957  90.7047 269.4310 13.19723713 45037
ONEWEB-0505             
1 54123U 22138L   23264.70824671 -.00014917  00000+0 -37419-1 0  9991
2 54123  87.9260 143.8894 0001623  73.5223 286.6088 13.19609487 44981
ONEWEB-0506             
1 54124U 22138M   23264.91031139  .00000184  00000+0  42617-3 0  9991
2 54124  87.9256 143.8470 0002180  81.5724 278.5656 13.19723623 45005
ONEWEB-0507             
1 54125U 22138N   23265.15830095  .00000540  00000+0  13168-2 0  9991
2 54125  87.9209 143.8194 0002330  73.6907 286.4482 13.19726318 45952
ONEWEB-0508             
1 54126U 22138P   23265.15514713  .00001081  00000+0  26676-2 0  9997
2 54126  87.9247 143.8047 0002680  76.7010 283.4421 13.19724009 45932
